{"type": "FeatureCollection", "features": [{"type": "Feature", "properties": {"norad_id": 28054, "name": "DMSP 5D-3 F16 (USA 172)", "group": "weather", "lat": -63.31885259335029, "lon": 22.16866802175855, "alt_km": 847.2261131536497, "timestamp": "2025-12-12T07:43:20.145526+00:00", "meta": {"OBJECT_NAME": "DMSP 5D-3 F16 (USA 172)", "OBJECT_ID": "2003-048A", "EPOCH": "2025-12-11T23:48:16.545024", "MEAN_MOTION": 14.14423794, "ECCENTRICITY": 0.00065282, "INCLINATION": 99.0047, "RA_OF_ASC_NODE": 3.4429, "ARG_OF_PERICENTER": 323.2515, "MEAN_ANOMALY": 93.1492, "EPHEMERIS_TYPE": 0, "CLASSIFICATION_TYPE": "U", "NORAD_CAT_ID": 28054, "ELEMENT_SET_NO": 999, "REV_AT_EPOCH": 14302, "BSTAR": 0.00013425253, "MEAN_MOTION_DOT": 2.12e-06, "MEAN_MOTION_DDOT": 0}, "tle": {"line1": "1 28054U 03048A   25345.99185816  .00000212  00000+0  13425-3 0  9992", "line2": "2 28054  99.0047   3.4429 0006528 323.2515  93.1492 14.14423794143021"}}, "geometry": {"type": "Point", "coordinates": [22.16866802175855, -63.31885259335029]}}, {"type": "Feature", "properties": {"norad_id": 28912, "name": "METEOSAT-9 (MSG-2)", "group": "weather", "lat": -1.0679733661841, "lon": -117.30597816250081, "alt_km": 35769.59642349634, "timestamp": "2025-12-12T07:43:20.145578+00:00", "meta": {"OBJECT_NAME": "METEOSAT-9 (MSG-2)", "OBJECT_ID": "2005-049B", "EPOCH": "2025-12-11T20:34:34.468032", "MEAN_MOTION": 1.00276076, "ECCENTRICITY": 0.00036435, "INCLINATION": 8.9379, "RA_OF_ASC_NODE": 55.9858, "ARG_OF_PERICENTER": 189.8677, "MEAN_ANOMALY": 189.2654, "EPHEMERIS_TYPE": 0, "CLASSIFICATION_TYPE": "U", "NORAD_CAT_ID": 28912, "ELEMENT_SET_NO": 999, "REV_AT_EPOCH": 512, "BSTAR": 0, "MEAN_MOTION_DOT": 1.29e-06, "MEAN_MOTION_DDOT": 0}, "tle": {"line1": "1 28912U 05049B   25345.85734338  .00000129  00000+0  00000+0 0  9990", "line2": "2 28912   8.9379  55.9858 0003643 189.8677 189.2654  1.00276076  5124"}}, "geometry": {"type": "Point", "coordinates": [-117.30597816250081, -1.0679733661841]}}, {"type": "Feature", "properties": {"norad_id": 29522, "name": "DMSP 5D-3 F17 (USA 191)", "group": "weather", "lat": -54.09834960461245, "lon": 159.45152625856153, "alt_km": 842.8641796403026, "timestamp": "2025-12-12T07:43:20.145595+00:00", "meta": {"OBJECT_NAME": "DMSP 5D-3 F17 (USA 191)", "OBJECT_ID": "2006-050A", "EPOCH": "2025-12-11T23:49:34.190112", "MEAN_MOTION": 14.14919047, "ECCENTRICITY": 0.00093763, "INCLINATION": 98.7394, "RA_OF_ASC_NODE": 351.3974, "ARG_OF_PERICENTER": 227.2083, "MEAN_ANOMALY": 132.8303, "EPHEMERIS_TYPE": 0, "CLASSIFICATION_TYPE": "U", "NORAD_CAT_ID": 29522, "ELEMENT_SET_NO": 999, "REV_AT_EPOCH": 98594, "BSTAR": 0.00016934015, "MEAN_MOTION_DOT": 2.84e-06, "MEAN_MOTION_DDOT": 0}, "tle": {"line1": "1 29522U 06050A   25345.99275683  .00000284  00000+0  16934-3 0  9998", "line2": "2 29522  98.7394 351.3974 0009376 227.2083 132.8303 14.14919047985948"}}, "geometry": {"type": "Point", "coordinates": [159.45152625856153, -54.09834960461245]}}, {"type": "Feature", "properties": {"norad_id": 32958, "name": "FENGYUN 3A", "group": "weather", "lat": -56.98375290023541, "lon": -60.562683927395774, "alt_km": 828.3979402856439, "timestamp": "2025-12-12T07:43:20.145608+00:00", "meta": {"OBJECT_NAME": "FENGYUN 3A", "OBJECT_ID": "2008-026A", "EPOCH": "2025-12-11T20:09:10.932768", "MEAN_MOTION": 14.19514245, "ECCENTRICITY": 0.00079441, "INCLINATION": 98.6697, "RA_OF_ASC_NODE": 285.3855, "ARG_OF_PERICENTER": 313.1724, "MEAN_ANOMALY": 46.8788, "EPHEMERIS_TYPE": 0, "CLASSIFICATION_TYPE": "U", "NORAD_CAT_ID": 32958, "ELEMENT_SET_NO": 999, "REV_AT_EPOCH": 90882, "BSTAR": 0.00012083885, "MEAN_MOTION_DOT": 2.11e-06, "MEAN_MOTION_DDOT": 0}, "tle": {"line1": "1 32958U 08026A   25345.83970987  .00000211  00000+0  12084-3 0  9994", "line2": "2 32958  98.6697 285.3855 0007944 313.1724  46.8788 14.19514245908829"}}, "geometry": {"type": "Point", "coordinates": [-60.562683927395774, -56.98375290023541]}}, {"type": "Feature", "properties": {"norad_id": 35491, "name": "GOES 14", "group": "weather", "lat": 0.06423415140905699, "lon": 87.60533454661926, "alt_km": 35838.68601181376, "timestamp": "2025-12-12T07:43:20.145623+00:00", "meta": {"OBJECT_NAME": "GOES 14", "OBJECT_ID": "2009-033A", "EPOCH": "2025-12-11T23:15:51.058080", "MEAN_MOTION": 1.000959, "ECCENTRICITY": 8.198e-05, "INCLINATION": 1.2007, "RA_OF_ASC_NODE": 85.3973, "ARG_OF_PERICENTER": 160.8826, "MEAN_ANOMALY": 74.3385, "EPHEMERIS_TYPE": 0, "CLASSIFICATION_TYPE": "U", "NORAD_CAT_ID": 35491, "ELEMENT_SET_NO": 999, "REV_AT_EPOCH": 471, "BSTAR": 0, "MEAN_MOTION_DOT": -2.7e-07, "MEAN_MOTION_DDOT": 0}, "tle": {"line1": "1 35491U 09033A   25345.96934095 -.00000027  00000+0  00000+0 0  9999", "line2": "2 35491   1.2007  85.3973 0000819 160.8826  74.3385  1.00095900  4714"}}, "geometry": {"type": "Point", "coordinates": [87.60533454661926, 0.06423415140905699]}}, {"type": "Feature", "properties": {"norad_id": 35951, "name": "DMSP 5D-3 F18 (USA 210)", "group": "weather", "lat": 74.55643444191196, "lon": 177.2045760618872, "alt_km": 829.1781249852747, "timestamp": "2025-12-12T07:43:20.145636+00:00", "meta": {"OBJECT_NAME": "DMSP 5D-3 F18 (USA 210)", "OBJECT_ID": "2009-057A", "EPOCH": "2025-12-11T22:45:11.225376", "MEAN_MOTION": 14.14768473, "ECCENTRICITY": 0.00120603, "INCLINATION": 98.8834, "RA_OF_ASC_NODE": 322.3528, "ARG_OF_PERICENTER": 64.8112, "MEAN_ANOMALY": 295.4311, "EPHEMERIS_TYPE": 0, "CLASSIFICATION_TYPE": "U", "NORAD_CAT_ID": 35951, "ELEMENT_SET_NO": 999, "REV_AT_EPOCH": 83311, "BSTAR": 0.00023094067, "MEAN_MOTION_DOT": 4.01e-06, "MEAN_MOTION_DDOT": 0}, "tle": {"line1": "1 35951U 09057A   25345.94804659  .00000401  00000+0  23094-3 0  9993", "line2": "2 35951  98.8834 322.3528 0012060  64.8112 295.4311 14.14768473833117"}}, "geometry": {"type": "Point", "coordinates": [177.2045760618872, 74.55643444191196]}}, {"type": "Feature", "properties": {"norad_id": 36411, "name": "EWS-G2 (GOES 15)", "group": "weather", "lat": 0.08824616470582879, "lon": -101.49151368788431, "alt_km": 35762.22271477075, "timestamp": "2025-12-12T07:43:20.145651+00:00", "meta": {"OBJECT_NAME": "EWS-G2 (GOES 15)", "OBJECT_ID": "2010-008A", "EPOCH": "2025-12-11T23:43:10.212960", "MEAN_MOTION": 1.00269643, "ECCENTRICITY": 0.00057749, "INCLINATION": 0.8124, "RA_OF_ASC_NODE": 86.0599, "ARG_OF_PERICENTER": 174.4597, "MEAN_ANOMALY": 237.6272, "EPHEMERIS_TYPE": 0, "CLASSIFICATION_TYPE": "U", "NORAD_CAT_ID": 36411, "ELEMENT_SET_NO": 999, "REV_AT_EPOCH": 5776, "BSTAR": 0, "MEAN_MOTION_DOT": 4.7e-07, "MEAN_MOTION_DDOT": 0}, "tle": {"line1": "1 36411U 10008A   25345.98831265  .00000047  00000+0  00000+0 0  9994", "line2": "2 36411   0.8124  86.0599 0005774 174.4597 237.6272  1.00269643 57764"}}, "geometry": {"type": "Point", "coordinates": [-101.49151368788431, 0.08824616470582879]}}, {"type": "Feature", "properties": {"norad_id": 36744, "name": "COMS 1", "group": "weather", "lat": -4.009536693562933, "lon": -34.780247092846814, "alt_km": 35783.29731349268, "timestamp": "2025-12-12T07:43:20.145664+00:00", "meta": {"OBJECT_NAME": "COMS 1", "OBJECT_ID": "2010-032A", "EPOCH": "2025-12-11T15:50:01.719168", "MEAN_MOTION": 1.00270393, "ECCENTRICITY": 0.00010766, "INCLINATION": 4.3389, "RA_OF_ASC_NODE": 78.0101, "ARG_OF_PERICENTER": 214.1904, "MEAN_ANOMALY": 154.095, "EPHEMERIS_TYPE": 0, "CLASSIFICATION_TYPE": "U", "NORAD_CAT_ID": 36744, "ELEMENT_SET_NO": 999, "REV_AT_EPOCH": 4921, "BSTAR": 0, "MEAN_MOTION_DOT": -3.37e-06, "MEAN_MOTION_DDOT": 0}, "tle": {"line1": "1 36744U 10032A   25345.65974212 -.00000337  00000+0  00000+0 0  9997", "line2": "2 36744   4.3389  78.0101 0001076 214.1904 154.0950  1.00270393 49210"}}, "geometry": {"type": "Point", "coordinates": [-34.780247092846814, -4.009536693562933]}}, {"type": "Feature", "properties": {"norad_id": 37214, "name": "FENGYUN 3B", "group": "weather", "lat": 65.66086283351164, "lon": 5.808182148449503, "alt_km": 830.6774843401199, "timestamp": "2025-12-12T07:43:20.145676+00:00", "meta": {"OBJECT_NAME": "FENGYUN 3B", "OBJECT_ID": "2010-059A", "EPOCH": "2025-12-12T01:07:35.260896", "MEAN_MOTION": 14.14790524, "ECCENTRICITY": 0.00220882, "INCLINATION": 98.9907, "RA_OF_ASC_NODE": 26.0187, "ARG_OF_PERICENTER": 359.6997, "MEAN_ANOMALY": 108.4226, "EPHEMERIS_TYPE": 0, "CLASSIFICATION_TYPE": "U", "NORAD_CAT_ID": 37214, "ELEMENT_SET_NO": 999, "REV_AT_EPOCH": 78096, "BSTAR": 0.00025735795, "MEAN_MOTION_DOT": 4.52e-06, "MEAN_MOTION_DDOT": 0}, "tle": {"line1": "1 37214U 10059A   25346.04693589  .00000452  00000+0  25736-3 0  9992", "line2": "2 37214  98.9907  26.0187 0022088 359.6997 108.4226 14.14790524780963"}}, "geometry": {"type": "Point", "coordinates": [5.808182148449503, 65.66086283351164]}}, {"type": "Feature", "properties": {"norad_id": 37849, "name": "SUOMI NPP", "group": "weather", "lat": -77.33020273966248, "lon": 60.25378340099142, "alt_km": 835.534707097434, "timestamp": "2025-12-12T07:43:20.145688+00:00", "meta": {"OBJECT_NAME": "SUOMI NPP", "OBJECT_ID": "2011-061A", "EPOCH": "2025-12-11T23:43:50.651616", "MEAN_MOTION": 14.19513866, "ECCENTRICITY": 0.00022223, "INCLINATION": 98.7772, "RA_OF_ASC_NODE": 283.3371, "ARG_OF_PERICENTER": 121.6606, "MEAN_ANOMALY": 238.4787, "EPHEMERIS_TYPE": 0, "CLASSIFICATION_TYPE": "U", "NORAD_CAT_ID": 37849, "ELEMENT_SET_NO": 999, "REV_AT_EPOCH": 73188, "BSTAR": 0.00010523145, "MEAN_MOTION_DOT": 1.78e-06, "MEAN_MOTION_DDOT": 0}, "tle": {"line1": "1 37849U 11061A   25345.98878069  .00000178  00000+0  10523-3 0  9993", "line2": "2 37849  98.7772 283.3371 0002222 121.6606 238.4787 14.19513866731880"}}, "geometry": {"type": "Point", "coordinates": [60.25378340099142, -77.33020273966248]}}]}